KAITUO 1B               
1 40912U 15049P   17312.98433080  .00002137  00000-0  10763-3 0  9997
2 40912  97.4513 318.5291 0017226  61.4319 356.3723 15.18144760118251
TIANWANG 1C (TW-1C)     
1 40926U 15051B   17313.05979551  .00014701  00000-0  30823-3 0  9991
2 40926  97.2126 351.6012 0011410  12.3349  72.1701 15.45428209119275
TIANWANG 1B (TW-1B)     
1 40927U 15051C   17313.16838692  .00015682  00000-0  34171-3 0  9993
2 40927  97.2215 351.6584 0010956  25.4419  46.9058 15.44283268119228
TIANWANG 1A (TW-1A)     
1 40928U 15051D   17313.16480594  .00005627  00000-0  15554-3 0  9990
2 40928  97.2110 346.3582 0013495  42.9424 358.1562 15.37340248118965
LAPAN-A2 (IO-86)        
1 40931U 15052B   17312.59108575  .00000735  00000-0  13364-4 0  9990
2 40931   5.9982 283.1070 0012856 122.8416 237.3115 14.76553576114343
LQSAT                   
1 40958U 15057A   17313.14380077 -.00000119  00000-0 -10617-4 0  9991
2 40958  97.9643  25.8357 0017180 325.8018  34.2113 14.72998111112450
CHUBUSAT-2              
1 41338U 16012B   17313.10698843  .00000771  00000-0  53926-4 0  9997
2 41338  31.0035 271.7955 0013787  54.2050 305.9865 14.99862164 94763
CHUBUSAT-3              
1 41339U 16012C   17312.35030596  .00000523  00000-0  34183-4 0  9998
2 41339  31.0103 275.5193 0013285  54.7538 305.4338 15.00056173 94639
OUFTI-1                 
1 41458U 16025C   17313.13226439  .00004518  00000-0  23959-3 0  9990
2 41458  98.1697 358.9563 0173095 164.5586 196.1055 15.03889527 84358
E-ST@R-II               
1 41459U 16025D   17313.17049041  .00003349  00000-0  17969-3 0  9992
2 41459  98.1655 358.9182 0173659 164.8349 195.8265 15.03662606 84352
AAUSAT 4                
1 41460U 16025E   17313.13874965  .00006535  00000-0  34403-3 0  9993
2 41460  98.1621 359.0883 0165959 162.5519 198.1557 15.04818207 84389
NUSAT 1 (LO-87)         
1 41557U 16033B   17313.19924895  .00004318  00000-0  16211-3 0  9997
2 41557  97.4536  32.6886 0013238 209.6080 150.4411 15.27668191 80564
BEESAT-4                
1 41619U 16040W   17312.85738647  .00004374  00000-0  19785-3 0  9995
2 41619  97.4456  13.7648 0010229 283.9562  76.0535 15.21401662 64583
PRATHAM                 
1 41783U 16059A   17312.82738682  .00000149  00000-0  38213-4 0  9997
2 41783  98.1499  12.5730 0034816  68.2910 292.1993 14.62876704 59746
ALSAT 1N                
1 41789U 16059G   17313.10596351 -.00000004  00000-0  84873-5 0  9995
2 41789  98.1488  13.6328 0029453  62.3337 298.0861 14.64097321 59813
NAYIF-1 (EO-88)         
1 42017U 17008BX  17313.21602658  .00005000  00000-0  21127-3 0  9996
2 42017  97.4782  14.3104 0008134  77.3227 282.8919 15.23672396 40568
LILACSAT-1              
1 42725U 98067ME  17313.19897708  .00037265  00000-0  45267-3 0  9994
2 42725  51.6394  32.0923 0004950 121.5709 238.5768 15.60196436 26077
MAX VALIER SAT          
1 42778U 17036P   17312.73322910  .00002639  00000-0  12261-3 0  9991
2 42778  97.4350  10.7738 0014337 118.8772 241.3904 15.20791278 20991
